NOAA 15                 
1 25338U 98030A   22054.54939610  .00000049  00000+0  38829-4 0  9997
2 25338  98.6584  85.4995 0009322 269.0438  90.9673 14.26092215237032
NOAA 18                 
1 28654U 05018A   22054.60294945  .00000110  00000+0  83376-4 0  9993
2 28654  98.9623 125.0767 0013289 294.2557  65.7226 14.12691323863905
NOAA 19                 
1 33591U 09005A   22054.59147990  .00000066  00000+0  61072-4 0  9993
2 33591  99.1631  86.2578 0014499 144.9815 215.2312 14.12532172672118
METOP-B                 
1 38771U 12049A   22054.61590822  .00000016  00000+0  27274-4 0  9990
2 38771  98.6808 116.0721 0001509  56.3898  98.4957 14.21497531489560
SARAL                   
1 39086U 13009A   22054.57173143  .00000027  00000+0  26412-4 0  9990
2 39086  98.5462 241.8889 0000612 156.8147 203.3064 14.32055247470184
METOP-C                 
1 43689U 18087A   22054.55237191  .00000020  00000+0  29299-4 0  9996
2 43689  98.7004 116.2831 0003102  30.9073 329.2287 14.21496131171127
ANGELS                  
1 44876U 19092D   22054.46121263  .00001495  00000+0  78391-4 0  9998
2 44876  97.4708 239.3450 0013178  39.6920 320.5275 15.17255943120954
